NORAD_CAT_ID,OBJECT_NAME,OBJECT_TYPE,EPOCH,MEAN_MOTION,ECCENTRICITY,INCLINATION,RA_OF_ASC_NODE,ARG_OF_PERICENTER,MEAN_ANOMALY,BSTAR,MEAN_MOTION_DOT,MEAN_MOTION_DDOT,TLE_LINE0,TLE_LINE1,TLE_LINE2,SEMIMAJOR_AXIS,PERIOD,APOGEE,PERIGEE,DECAYED
53429.0,STARLINK-4543,PAYLOAD,2023-12-10 18:43:05,15.08836507,0.0001409,53.2161,184.9531,82.9936,277.1216,2.3994e-05,9.4e-07,0.0,0 STARLINK-4543,1 53429U 22097AT  23344.77992092  .00000094  00000-0  23994-4 0  9998,2 53429  53.2161 184.9531 0001409  82.9936 277.1216 15.08836507 75006,6917.891,95.438,540.731,538.781,0.0
53429.0,STARLINK-4543,PAYLOAD,2023-12-11 18:33:51,15.08839292,0.0001432,53.2158,180.4892,96.3653,263.7502,0.00010125,1.324e-05,0.0,0 STARLINK-4543,1 53429U 22097AT  23345.77351764  .00001324  00000-0  10125-3 0  9992,2 53429  53.2158 180.4892 0001432  96.3653 263.7502 15.08839292 74679,6917.883,95.438,540.738,538.757,0.0
53429.0,STARLINK-4543,PAYLOAD,2023-12-12 20:00:02,15.08842233,0.0001428,53.2164,175.736,98.8167,261.2987,8.4673e-05,1.06e-05,0.0,0 STARLINK-4543,1 53429U 22097AT  23346.83335711  .00001060  00000-0  84673-4 0  9991,2 53429  53.2164 175.7360 0001428  98.8167 261.2987 15.08842233 74832,6917.874,95.437,540.726,538.751,0.0
53429.0,STARLINK-4543,PAYLOAD,2023-12-13 19:50:48,15.08844037,0.0001419,53.2163,171.2752,96.4454,263.6699,5.3075e-05,5.57e-06,0.0,0 STARLINK-4543,1 53429U 22097AT  23347.82695568  .00000557  00000-0  53075-4 0  9992,2 53429  53.2163 171.2752 0001419  96.4454 263.6699 15.08844037 75460,6917.868,95.437,540.715,538.751,0.0
53429.0,STARLINK-4543,PAYLOAD,2023-12-14 19:41:36,15.0883807,0.0001407,53.2164,166.8151,85.4509,274.6644,1.0615e-05,-1.19e-06,0.0,0 STARLINK-4543,1 53429U 22097AT  23348.82056185 -.00000119  00000-0  10615-4 0  9997,2 53429  53.2164 166.8151 0001407  85.4509 274.6644 15.08838070 75136,6917.886,95.438,540.725,538.778,0.0
53429.0,STARLINK-4543,PAYLOAD,2023-12-15 19:32:23,15.08840666,0.0001614,53.2165,162.3573,71.9835,288.1333,7.0184e-05,8.29e-06,0.0,0 STARLINK-4543,1 53429U 22097AT  23349.81416067  .00000829  00000-0  70184-4 0  9990,2 53429  53.2165 162.3573 0001614  71.9835 288.1333 15.08840666 75766,6917.878,95.438,540.86,538.627,0.0
53429.0,STARLINK-4543,PAYLOAD,2023-12-16 17:47:47,15.08844068,0.0001545,53.2166,158.1931,75.7541,284.3623,0.00011761,1.584e-05,0.0,0 STARLINK-4543,1 53429U 22097AT  23350.74151750  .00001584  00000-0  11761-3 0  9993,2 53429  53.2166 158.1931 0001545  75.7541 284.3623 15.08844068 75420,6917.868,95.437,540.802,538.664,0.0
53429.0,STARLINK-4543,PAYLOAD,2023-12-17 17:38:34,15.08843146,0.0001557,53.2153,153.7346,75.4129,284.7036,5.362e-05,5.66e-06,0.0,0 STARLINK-4543,1 53429U 22097AT  23351.73511951  .00000566  00000-0  53620-4 0  9996,2 53429  53.2153 153.7346 0001557  75.4129 284.7036 15.08843146 75573,6917.871,95.437,540.813,538.659,0.0
53429.0,STARLINK-4543,PAYLOAD,2023-12-18 14:18:35,15.08824453,0.0001628,53.2167,149.8609,102.8854,257.232,0.00013264,1.823e-05,0.0,0 STARLINK-4543,1 53429U 22097AT  23352.59624610  .00001823  00000-0  13264-3 0  9994,2 53429  53.2167 149.8609 0001628 102.8854 257.2320 15.08824453 76184,6917.928,95.439,540.919,538.667,0.0
53429.0,STARLINK-4543,PAYLOAD,2023-12-18 17:29:21,15.08836246,0.000152,53.2164,149.27,103.1707,256.9455,2.0761e-05,4.2e-07,0.0,0 STARLINK-4543,1 53429U 22097AT  23352.72872381  .00000042  00000-0  20761-4 0  9992,2 53429  53.2164 149.2700 0001520 103.1707 256.9455 15.08836246 75726,6917.892,95.438,540.808,538.705,0.0
53429.0,STARLINK-4543,PAYLOAD,2023-12-19 14:09:22,15.08845748,0.0001392,53.217,145.4011,100.9704,259.1444,1.928e-05,1.9e-07,0.0,0 STARLINK-4543,1 53429U 22097AT  23353.58983943  .00000019  00000-0  19280-4 0  9992,2 53429  53.2170 145.4011 0001392 100.9704 259.1444 15.08845748 76333,6917.863,95.437,540.691,538.765,0.0
53429.0,STARLINK-4543,PAYLOAD,2023-12-19 17:20:08,15.08846825,0.0001366,53.2171,144.8069,97.0961,263.0186,5.7025e-05,6.2e-06,0.0,0 STARLINK-4543,1 53429U 22097AT  23353.72231783  .00000620  00000-0  57025-4 0  9993,2 53429  53.2171 144.8069 0001366  97.0961 263.0186 15.08846825 75874,6917.86,95.437,540.67,538.78,0.0
53429.0,STARLINK-4543,PAYLOAD,2023-12-20 07:38:37,15.08837928,0.0001346,53.2169,142.1304,111.3291,248.7845,5.8475e-05,6.43e-06,0.0,0 STARLINK-4543,1 53429U 22097AT  23354.31848478  .00000643  00000-0  58475-4 0  9999,2 53429  53.2169 142.1304 0001346 111.3291 248.7845 15.08837928 75964,6917.887,95.438,540.683,538.821,0.0
53429.0,STARLINK-4543,PAYLOAD,2023-12-20 14:00:09,15.08838686,0.0001255,53.2164,140.9407,102.5746,257.5386,6.0552e-05,6.76e-06,0.0,0 STARLINK-4543,1 53429U 22097AT  23354.58344500  .00000676  00000-0  60552-4 0  9990,2 53429  53.2164 140.9407 0001255 102.5746 257.5386 15.08838686 76483,6917.884,95.438,540.618,538.881,0.0
53429.0,STARLINK-4543,PAYLOAD,2023-12-20 15:35:32,15.08839933,0.0001242,53.2163,140.6438,102.1909,257.9222,6.9038e-05,8.11e-06,0.0,0 STARLINK-4543,1 53429U 22097AT  23354.64968405  .00000811  00000-0  69038-4 0  9992,2 53429  53.2163 140.6438 0001242 102.1909 257.9222 15.08839933 76496,6917.881,95.438,540.605,538.886,0.0
53429.0,STARLINK-4543,PAYLOAD,2023-12-21 13:50:56,15.08849219,0.0001173,53.2165,136.4809,103.9301,256.1822,-5.6654e-05,-1.19e-05,0.0,0 STARLINK-4543,1 53429U 22097AT  23355.57704317 -.00001190  00000-0 -56654-4 0  9998,2 53429  53.2165 136.4809 0001173 103.9301 256.1822 15.08849219 76632,6917.852,95.437,540.529,538.906,0.0
53429.0,STARLINK-4543,PAYLOAD,2023-12-21 15:26:19,15.08849659,0.0001217,53.2164,136.1837,105.8484,254.2642,-3.6374e-05,-8.67e-06,0.0,0 STARLINK-4543,1 53429U 22097AT  23355.64328197 -.00000867  00000-0 -36374-4 0  9991,2 53429  53.2164 136.1837 0001217 105.8484 254.2642 15.08849659 76166,6917.851,95.437,540.558,538.874,0.0
53429.0,STARLINK-4543,PAYLOAD,2023-12-22 13:41:43,15.08841402,0.0001158,53.2162,132.0228,93.7704,266.342,0.000104,1.368e-05,0.0,0 STARLINK-4543,1 53429U 22097AT  23356.57064465  .00001368  00000-0  10400-3 0  9995,2 53429  53.2162 132.0228 0001158  93.7704 266.3420 15.08841402 76781,6917.876,95.437,540.542,538.94,0.0
53429.0,STARLINK-4543,PAYLOAD,2023-12-22 15:17:06,15.08842,0.0001192,53.2151,131.7254,89.5327,270.5802,0.00010633,1.405e-05,0.0,0 STARLINK-4543,1 53429U 22097AT  23356.63688333  .00001405  00000-0  10633-3 0  9998,2 53429  53.2151 131.7254 0001192  89.5327 270.5802 15.08842000 76311,6917.874,95.437,540.564,538.915,0.0
53429.0,STARLINK-4543,PAYLOAD,2023-12-23 13:32:30,15.0884165,0.0001492,53.2177,127.5639,74.8658,285.2499,6.2681e-05,7.1e-06,0.0,0 STARLINK-4543,1 53429U 22097AT  23357.56424732  .00000710  00000-0  62681-4 0  9991,2 53429  53.2177 127.5639 0001492  74.8658 285.2499 15.08841650 76939,6917.875,95.437,540.772,538.708,0.0
53429.0,STARLINK-4543,PAYLOAD,2023-12-23 15:07:54,15.08842331,0.0001539,53.2177,127.2666,72.7945,287.3215,6.649e-05,7.7e-06,0.0,0 STARLINK-4543,1 53429U 22097AT  23357.63048675  .00000770  00000-0  66490-4 0  9995,2 53429  53.2177 127.2666 0001539  72.7945 287.3215 15.08842331 76941,6917.873,95.437,540.803,538.674,0.0
53429.0,STARLINK-4543,PAYLOAD,2023-12-24 13:23:17,15.08842896,0.0001477,53.2164,123.1033,63.8125,296.3019,9.3935e-05,1.207e-05,0.0,0 STARLINK-4543,1 53429U 22097AT  23358.55784493  .00001207  00000-0  93935-4 0  9992,2 53429  53.2164 123.1033 0001477  63.8125 296.3019 15.08842896 77086,6917.872,95.437,540.758,538.715,0.0
53429.0,STARLINK-4543,PAYLOAD,2023-12-24 14:58:40,15.08844645,0.0001462,53.2163,122.8055,67.2192,292.8955,0.00010896,1.447e-05,0.0,0 STARLINK-4543,1 53429U 22097AT  23358.62408320  .00001447  00000-0  10896-3 0  9992,2 53429  53.2163 122.8055 0001462  67.2192 292.8955 15.08844645 77096,6917.866,95.437,540.743,538.72,0.0
53429.0,STARLINK-4543,PAYLOAD,2023-12-25 11:38:41,15.08839574,0.0001381,53.2162,118.9388,75.9934,284.1211,3.6591e-05,2.94e-06,0.0,0 STARLINK-4543,1 53429U 22097AT  23359.48520794  .00000294  00000-0  36591-4 0  9997,2 53429  53.2162 118.9388 0001381  75.9934 284.1211 15.08839574 76745,6917.882,95.438,540.702,538.791,0.0
53429.0,STARLINK-4543,PAYLOAD,2023-12-25 14:49:28,15.08841591,0.000134,53.2165,118.3436,83.1596,276.9549,4.719e-05,4.63e-06,0.0,0 STARLINK-4543,1 53429U 22097AT  23359.61768561  .00000463  00000-0  47190-4 0  9993,2 53429  53.2165 118.3436 0001340  83.1596 276.9549 15.08841591 77247,6917.876,95.437,540.668,538.814,0.0
53429.0,STARLINK-4543,PAYLOAD,2023-12-26 13:04:52,15.08838002,0.0001385,53.2165,114.1798,82.5257,277.5893,-1.0791e-06,-3.05e-06,0.0,0 STARLINK-4543,1 53429U 22097AT  23360.54505116 -.00000305  00000-0 -10791-5 0  9997,2 53429  53.2165 114.1798 0001385  82.5257 277.5893 15.08838002 77385,6917.886,95.438,540.71,538.793,0.0
53429.0,STARLINK-4543,PAYLOAD,2023-12-27 14:31:00,15.08859749,0.0001339,53.2167,109.4219,95.7767,264.3378,0.0002276,3.338e-05,0.0,0 STARLINK-4543,1 53429U 22097AT  23361.60487095  .00003338  00000-0  22760-3 0  9994,2 53429  53.2167 109.4219 0001339  95.7767 264.3378 15.08859749 77544,6917.82,95.436,540.611,538.759,0.0
53429.0,STARLINK-4543,PAYLOAD,2023-12-27 17:41:46,15.08861338,0.0001375,53.2175,108.8253,94.8534,265.2615,0.00020939,3.048e-05,0.0,0 STARLINK-4543,1 53429U 22097AT  23361.73734850  .00003048  00000-0  20939-3 0  9996,2 53429  53.2175 108.8253 0001375  94.8534 265.2615 15.08861338 77086,6917.815,95.436,540.631,538.729,0.0
53429.0,STARLINK-4543,PAYLOAD,2023-12-28 11:11:03,15.08840248,0.0002258,53.217,105.5465,136.8691,223.2479,3.9528e-06,-2.25e-06,0.0,0 STARLINK-4543,1 53429U 22097AT  23362.46600738 -.00000225  00000-0  39528-5 0  9995,2 53429  53.2170 105.5465 0002258 136.8691 223.2479 15.08840248 77193,6917.88,95.438,541.307,538.183,0.0
53429.0,STARLINK-4543,PAYLOAD,2023-12-28 14:21:49,15.08834882,0.0001397,53.2173,104.9584,91.7463,268.3689,1.3598e-05,-7.2e-07,0.0,0 STARLINK-4543,1 53429U 22097AT  23362.59849250 -.00000072  00000-0  13598-4 0  9991,2 53429  53.2173 104.9584 0001397  91.7463 268.3689 15.08834882 77695,6917.896,95.438,540.727,538.795,0.0
